[{"OBJECT_NAME":"IONOSFERA-M 3","OBJECT_ID":"2025-155A","EPOCH":"2026-03-09T23:55:45.856992","MEAN_MOTION":14.2146666,"ECCENTRICITY":0.00021277,"INCLINATION":98.5924,"RA_OF_ASC_NODE":33.457,"ARG_OF_PERICENTER":117.7739,"MEAN_ANOMALY":242.3654,"EPHEMERIS_TYPE":0,"CLASSIFICATION_TYPE":"U","NORAD_CAT_ID":64876,"ELEMENT_SET_NO":999,"REV_AT_EPOCH":3231,"BSTAR":7.6669026e-5,"MEAN_MOTION_DOT":1.25e-6,"MEAN_MOTION_DDOT":0},{"OBJECT_NAME":"CZ-4 DEB","OBJECT_ID":"1990-081E","EPOCH":"2026-03-09T22:12:41.800320","MEAN_MOTION":14.2019066,"ECCENTRICITY":0.00142445,"INCLINATION":98.7604,"RA_OF_ASC_NODE":58.97,"ARG_OF_PERICENTER":325.7292,"MEAN_ANOMALY":34.2964,"EPHEMERIS_TYPE":0,"CLASSIFICATION_TYPE":"U","NORAD_CAT_ID":20792,"ELEMENT_SET_NO":999,"REV_AT_EPOCH":82935,"BSTAR":0.00067286849,"MEAN_MOTION_DOT":1.394e-5,"MEAN_MOTION_DDOT":0}]
